#dP2024  1  4  0  0  0.00000000     289 ORBIT ITRF  BHN ESOC                    
## 2295 345600.00000000   300.00000000 60313 0.0000000000000                    
+  117   G13G22G21G07G05G20G31G17G15G16G29G12G19G02G25G01G30                    
+        G24G06G09G03G32G26G08G10G04G18G23G14G11G28R09R11R22                    
+        R20R19R13R01R08R03R07R02R17R14R18R21R05R15R12R04R24                    
+        R16E11E12E19E18E14E26E24E30E08E09E02E07E03E04E05E21                    
+        E25E27E31E36E13E15E33E34E10C11C12C14C19C20C27C28C22                    
+        C21C29C30C23C24C26C25C32C33C35C34C36C37C46C45C44C43                    
+        C41C42C06C07C08C09C10C13C16C38C39C40J02J03J04  0  0                    
++         4  4  5  5  5  5  4  4  5  5  5  5  5  5  5  5  5                    
++         4  4  4  5  4  5  4  5  5  5  5  5  5  4  5  5  5                    
++         6  6  6  7  6  5  5  5  5  5  5  5  6  6  5  5  5                    
++         5  5  5  5  5  5  5  5  5  5  4  5  5  5  5  4  5                    
++         5  5  5  5  5  5  5  5  5  6  5  5  5  5  5  5  5                    
++         5  5  5  4  5  5  5  5  6  5  5  5  5  5  5  5  5                    
++         5  5  6  6  7  6  6  7  6  8  7  7  6  5  6  0  0                    
%c M  cc GPS ccc cccc cccc cccc cccc ccccc ccccc ccccc ccccc                    
%c cc cc ccc ccc cccc cccc cccc cccc ccccc ccccc ccccc ccccc                    
%f  0.0000000  0.000000000  0.00000000000  0.000000000000000                    
%f  0.0000000  0.000000000  0.00000000000  0.000000000000000                    
%i    0    0    0    0      0      0      0      0         0                    
%i    0    0    0    0      0      0      0      0         0                    
/* CCCCCCCCCCCCCCCCCCCCCCCCCCCCCCCCCCCCCCCCCCCCCCCCCCCCCCCCCCCCCCCCCCCCCCCCCCCCC
/* CCCCCCCCCCCCCCCCCCCCCCCCCCCCCCCCCCCCCCCCCCCCCCCCCCCCCCCCCCCCCCCCCCCCCCCCCCCCC
/* CCCCCCCCCCCCCCCCCCCCCCCCCCCCCCCCCCCCCCCCCCCCCCCCCCCCCCCCCCCCCCCCCCCCCCCCCCCCC
/* PCV:IGS        OL/AL:EOT11A   NONE     YN ORB:CoN CLK:CoN                    
*  2024  1  4 20 50  0.00000000                                                 
PG13 -14294.589343   4276.848555  21764.040368    612.634604                    
PG22 -22915.179508 -11150.070883   7359.011892     53.895729                    
PG21  17332.458956 -18776.342985   5529.276854    139.444482                    
PG07   -902.752828 -19531.779768  18240.430867    -29.228990                    
PG05 -21551.181819   7046.393057  13734.047441   -156.730259                    
PG20 -26417.280941   1169.568862   1133.659710    393.174536                    
PG31  19449.411811  -2879.474862 -18250.008597   -227.089653                    
PG17 -12619.483022 -21634.951407  -8182.988168    720.624765                    
PG15  -7693.242229  15675.407962  19467.336991    113.913277                    
PG16  25234.250691    145.130970   8672.182193   -390.717807                    
PG29   3498.906911  25640.863531  -5786.161435   -609.101815                    
PG12 -11732.125421  12099.957317 -20795.208272   -464.558115                    
PG19 -15411.185721 -14710.796918 -16269.682424    422.033767                    
PG02  15645.505989 -21292.136229   1282.402301   -505.666454                    
PG25   1628.987143  15822.210625 -21631.745253    484.091135                    
PG01  12273.182426 -22192.801790  -7631.755336    165.283441                    
PG30 -10277.947852 -12259.270126  21303.731195   -449.371364                    
PG24 -15227.479047  21434.251723    991.728697   -407.499550                    
PG06 -15718.061429  -2868.209677 -21164.044570    455.836924                    
PG09  -6554.154050 -25243.921129  -4944.073145     48.432199                    
PG03  10941.600444 -12357.323916 -20925.452443    103.661599                    
PG32  15565.102176  18465.794523 -11096.265401   -602.475330                    
PG26  26505.312721   3406.307925  -1563.074604    203.307718                    
PG08   9239.481499 -14556.171048  20000.325608   -160.452589                    
PG10  21769.882331  11007.457092  11098.953749    -68.028720                    
PG04   3703.563846 -21484.140788 -15065.982909    257.641788                    
PG18   1159.493816  18540.299794  18925.863100   -524.025565                    
PG23  10757.699422  14655.959107  19449.334536    129.024672                    
PG14 -18688.496497 -13399.891654  13467.792256    289.818172                    
PG11 -20572.278744   7327.555548 -15057.801511   -527.640288                    
PG28  14476.154759   5798.245773 -21522.370243    -89.169737                    
PR09 -22391.167839   9804.576384  -7416.809612    162.552034                    
PR11   8550.190554   8810.677354 -22351.537441   -225.524056                    
PR22   2293.566756  18415.488787  17539.244314    101.552103                    
PR20 -12892.818518  15580.940191 -15558.522929   -106.342702                    
PR19  -8962.526741  -5661.921064 -23193.902715   -260.886539                    
PR13  23467.361710  -8535.467439   5201.951378    -43.000053                    
PR01  19120.574501  10164.863601 -13475.792127     73.730857                    
PR08  15587.830004  19725.700378   4491.060414    -73.937839                    
PR03  -3664.765069 -16786.447999 -18780.385914     92.142994                    
PR07   4385.746674  17264.601843  18323.685983     72.841382                    
PR02  10566.966842  -4219.755919 -22792.402937    -22.407026                    
PR17   6637.729071 -24571.932235  -1950.481741     49.455083                    
PR14   8765.268817 -12439.652009  20471.300662     25.845614                    
PR18  -1952.835621 -18938.023347 -16926.425610    120.392885                    
PR21  -6591.458915  24506.061126   2463.552553    -66.409608                    
PR05 -18824.243202 -12225.826772  12100.616064    124.831423                    
PR15 -10003.444026  -8440.920832  21905.867193     83.341392                    
PR12  23358.114749   -591.402909 -10237.308994     35.206437                    
PR04 -15384.596332 -19803.300516  -4587.075683    218.117366                    
PR24  12507.137573 -16415.680796  15024.574317    -38.652436                    
PR16 -23224.228011    616.646965  10569.277747     22.145978                    
PE11  14897.985440 -24706.128407  -6590.726049   3280.262551                    
PE12  22539.296439 -14388.742052  12678.805619   -848.573983                    
PE19  17944.494965  17766.565724 -15446.632985   -877.463982                    
PE18  16118.721145   7794.901243  15626.884445    173.591999                    
PE14 -20729.534081 -18399.993546 -16795.548876      1.249071                    
PE26   1344.547007  20349.903082  21465.203498    329.795434                    
PE24  11018.512516 -14474.991461  23336.280938   -524.014255                    
PE30 -26873.347520   3631.101097 -11857.607122   -797.980779                    
PE08 -16010.547909   5199.197292  24343.507380   -202.902210                    
PE09   4191.486090 -23434.513534 -17597.779056   -287.770171                    
PE02 -27130.294845  -9572.588892   6903.160294     92.350515                    
PE07  -4213.737842  23540.936420  17440.587306    -96.675769                    
PE03 -18551.995224 -15525.051085  17055.140959    -84.805654                    
PE04  15888.185089  -5946.889882 -24253.327765   -296.043320                    
PE05 -10399.325899 -27711.374604     32.523106   4707.181167                    
PE21  12272.831583  16825.924264 -21044.351204   -572.256017                    
PE25 -11842.404660 -16881.548305  21230.004927     -0.977254                    
PE27 -10431.382575  14651.191396 -23510.204981   -241.243126                    
PE31  26749.302536  -3859.895578  12086.943659    -13.081960                    
PE36   -643.067015 -20631.001570 -21202.643644   -167.287025                    
PE13 -15359.273508  24608.363656   5922.165258    -19.817677                    
PE15 -22506.807428  14030.387897 -13138.475349    -78.404170                    
PE33  16008.746603   5184.557879  24362.216446      5.405628                    
PE34 -16369.954411  -4597.610297 -24224.781936    -87.172409                    
PE10  20513.271460 -20974.277552   3949.934950   -591.632584                    
PC11    622.335032  27050.113054   6885.596568    341.519305                    
PC12 -10751.521070  23084.293873 -11368.682741    805.768729                    
PC14   9600.364305  20637.844160  16123.038561   -102.954348                    
PC19 -17709.116872 -19938.608975  -8228.136238   -942.253781                    
PC20  -1856.355995 -18690.400184 -20637.115683    -34.841011                    
PC27  14408.074273 -16008.112600  17722.774702    252.056004                    
PC28  15782.236535   2678.784287  22866.329085    191.043785                    
PC22 -24285.544215  -9852.125042   9611.702728   -160.153507                    
PC21 -16637.495523   5906.832468  21629.453283   -965.080278                    
PC29  -8143.758899 -22632.326603 -14147.747618    223.762467                    
PC30   4654.690455 -27281.212265   3477.309287    -13.086035                    
PC23  23660.679203   1285.605013 -14754.673429   -794.289734                    
PC24 -11449.897592  18670.627228 -17299.432834    758.643914                    
PC26 -24350.348411  13358.115229  -2526.020460   -230.090807                    
PC25   9568.894529  13445.597868 -22520.230308    294.154494                    
PC32  16655.245169  -5961.524357 -21566.578537   -549.940009                    
PC33  17722.263167  19863.405964   8358.044278   -942.307180                    
PC35 -15955.977676  -2062.981120 -22808.921895    464.816751                    
PC34  -3704.552507  27598.536263  -2023.356467    339.995186                    
PC36  -8487.266654 -14048.762731  22580.710670    -65.449818                    
PC37  24902.128341 -12480.410941   1949.319612   -931.462646                    
PC46  10586.530192 -18576.623884  17942.328661   -113.051193                    
PC45 -23799.860946   -960.054709  14506.106379    -60.606308                    
PC44 -13970.523414  16392.614455 -17772.037358    343.842364                    
PC43   7632.330991  23278.626451  13379.518438     55.067780                    
PC41  24337.243197  10372.668111  -8818.266062   -877.374436                    
PC42    174.732842  18060.370107  21308.933859   -470.311899                    
PC06 -15292.909369  39306.301275  -3463.843498     29.490279                    
PC07  -1189.783373  32335.434212 -26834.184378   -585.203802                    
PC08 -13235.009052  20789.376463  34147.467103    134.995961                    
PC09  -9276.584184  39034.206895 -13485.930883   -309.213281                    
PC10   4894.783308  34187.908922 -23494.246755    138.699666                    
PC13  -5840.584919  22518.507718  35297.296883    403.832852                    
PC16 -15731.776574  39210.770262  -2663.013128   -263.483254                    
PC38 -21316.541531  22202.535060  28795.166738    128.393650                    
PC39 -17561.102097  38188.619970   4613.638741     -6.494287                    
PC40  -5364.854709  27847.192777 -31098.431657    -50.719866                    
PJ02 -30353.689894  14582.011087 -20740.071528     -0.955988                    
PJ03 -23697.356216  33655.944640  -4097.103940     -0.120305                    
PJ04 -25257.664643  26942.397235  26304.932087     75.932713                    
EOF                                                                             
